[Satellite]
VERSION=1.1
NAME=AMOS-4
NICKNAME=AMOS-4
TLE1=1 39237U 13045A   17186.03275534  .00000002  00000-0  00000-0 0  9991
TLE2=2 39237   0.0305 106.5087 0000819   2.7400 250.7525  1.00273710 14172
